IRIDIUM 134
1 43075U 17083F   26109.38109911  .00000178  00000+0  56378-4 0  9996
2 43075  86.3999 346.6556 0002258  86.7622 273.3832 14.34219375435670
IRIDIUM 137
1 43076U 17083G   26109.39378683  .00000161  00000+0  50278-4 0  9997
2 43076  86.4002 346.7419 0002314  73.0040 287.1409 14.34219330435744
IRIDIUM 141
1 43077U 17083H   26109.17813786  .00000128  00000+0  38744-4 0  9999
2 43077  86.3997 346.6660 0002082  85.7545 274.3889 14.34218435435718
IRIDIUM 153
1 43078U 17083J   26109.47915984 -.00000019  00000+0 -13693-4 0  9993
2 43078  86.3940 315.0347 0001925  94.0069 266.1347 14.34217325436860
IRIDIUM 131
1 43079U 17083K   26109.37475843  .00000159  00000+0  49602-4 0  9990
2 43079  86.4002 346.7658 0002085  84.9092 275.2342 14.34218647435671
LKW-2
1 43080U 17084A   26109.53485940  .00009050  00000+0  35914-3 0  9999
2 43080  97.1244 152.0887 0003801  91.7128 268.4546 15.25561920462749
YAOGAN-30 04A
1 43081U 17085A   26109.48103369  .00001747  00000+0  13139-3 0  9997
2 43081  34.9949 147.7853 0004749 349.8684  10.1928 15.02407065453886
YAOGAN-30 04B
1 43082U 17085B   26109.50340059  .00001748  00000+0  13148-3 0  9991
2 43082  34.9939 147.7420 0004931 196.8977 163.1568 15.02393221453869
YAOGAN-30 04C
1 43083U 17085C   26109.52543638  .00001716  00000+0  12928-3 0  9992
2 43083  34.9943 148.0107 0004744 336.1417  23.9070 15.02361176453923
SUPERVIEW-1 03
1 43099U 18002A   26109.49277289  .00016436  00000+0  43081-3 0  9990
2 43099  97.3133 194.5031 0049097  34.2668 326.1727 15.37497106459340
BEIDOU-3 M7
1 43107U 18003A   26106.06318399 -.00000027  00000+0  00000+0 0  9999
2 43107  54.3864 304.4805 0005274  84.2600 275.8191  1.86227938 56199
BEIDOU-3 M8
1 43108U 18003B   26108.15670832 -.00000035  00000+0  00000+0 0  9994
2 43108  54.3743 304.3904 0002313 289.9909  69.9926  1.86231108 56240
CARTOSAT-2F
1 43111U 18004A   26109.52342692  .00005627  00000+0  27034-3 0  9992
2 43111  97.4078 169.9279 0002350 102.4279 257.7218 15.19226277458422
LEO 1 (LEO VANTAGE 1)
1 43113U 18004C   26109.20886786  .00001607  00000+0  11784-3 0  9995
2 43113  99.2454  19.8068 0350140 260.4504  95.6976 14.67536984428833
LKW-3
1 43146U 18006A   26109.50144979  .00013239  00000+0  40347-3 0  9998
2 43146  97.6551 267.8574 0003823 139.4030 220.7497 15.34094399459712
ASNARO-2
1 43152U 18007A   26109.49142117  .00007954  00000+0  34686-3 0  9992
2 43152  97.4003 117.3263 0001815  93.3706 266.7738 15.22430844458487
JILIN-1 07
1 43159U 18008E   26109.52349155  .00008128  00000+0  25119-3 0  9990
2 43159  97.1818 131.0459 0006388 267.7341  92.3171 15.33754052456009
JILIN-1 08
1 43160U 18008F   26109.48913615  .00007186  00000+0  22842-3 0  9998
2 43160  97.1846 130.3838 0004108 289.3528  70.7270 15.32906423455953
SBIRS GEO-3 (USA 282)
1 43162U 18009A   26109.47487545  .00000131  00000+0  00000+0 0  9999
2 43162   2.1476   9.2519 0002066  10.0300 199.8528  1.00271772 30251
WEINA 1A
1 43169U 18011A   26109.45804439  .00001469  00000+0  11579-3 0  9994
2 43169  34.9945 158.8232 0003224 252.2913 107.7443 15.00748026449290
YAOGAN-30 05A
1 43170U 18011B   26109.49900243  .00001735  00000+0  13067-3 0  9990
2 43170  34.9952 148.5870 0003821 189.0173 171.0467 15.02365474449319
YAOGAN-30 05B
1 43171U 18011C   26109.49348024  .00001709  00000+0  12855-3 0  9999
2 43171  34.9944 148.3767 0001727 198.9760 161.0884 15.02423248449381
YAOGAN-30 05C
1 43172U 18011D   26109.48753322  .00001734  00000+0  13037-3 0  9991
2 43172  34.9959 148.6542 0002580 272.5089  87.5324 15.02425869449251
AL YAH 3
1 43174U 18012A   26109.43119529 -.00000152  00000+0  00000+0 0  9990
2 43174   1.4002  83.7594 0004176 308.3545 310.5640  1.00270885 30250
SES-14
1 43175U 18012B   26109.46780649 -.00000276  00000+0  00000+0 0  9998
2 43175   0.0224   7.9052 0000707   8.5871 312.0071  1.00271778  6436
KANOPUS-V 3
1 43180U 18014A   26109.26888122 -.00000045  00000+0  99642-6 0  9990
2 43180  97.3619  15.9820 0002017  95.3137 264.8330 15.22694365455751
KANOPUS-V 4
1 43181U 18014B   26109.56434343  .00000064  00000+0  56930-5 0  9998
2 43181  97.3626  16.4236 0001955  95.0530 265.0930 15.22678039455817
LEMUR-2-KADI
1 43184U 18014E   26109.23389992  .00160365  00000+0  11032-2 0  9996
2 43184  97.4584  36.5406 0007130 103.7827 256.4231 15.74141972451747
S-NET D
1 43186U 18014G   26109.46842966  .00004391  00000+0  23126-3 0  9992
2 43186  97.5403  14.6388 0007214 211.6300 148.4500 15.16113699449864
S-NET B
1 43187U 18014H   26109.47874044  .00004462  00000+0  23510-3 0  9992
2 43187  97.5408  14.6338 0007957 207.0814 153.0004 15.16084387449860
S-NET A
1 43188U 18014J   26109.46758753  .00004321  00000+0  22760-3 0  9990
2 43188  97.5418  14.8207 0007825 207.8101 152.2715 15.16120344449864
S-NET C
1 43189U 18014K   26109.48229005  .00004367  00000+0  23019-3 0  9994
2 43189  97.5436  14.9009 0009392 201.3748 158.7094 15.16075821448413
ZHANGHENG 1-01 (CSES-1)
1 43194U 18015C   26109.51380780  .00006809  00000+0  31295-3 0  9991
2 43194  97.6822 274.0234 0018008 106.9699 253.3511 15.20564197455729
BEIDOU-3 M4
1 43207U 18018A   26109.13611572 -.00000019  00000+0  00000+0 0  9997
2 43207  56.6025  65.0946 0007773   0.7833 359.1846  1.86230760 55646
BEIDOU-3 M3
1 43208U 18018B   26109.20256231 -.00000019  00000+0  00000+0 0  9993
2 43208  56.6018  65.0963 0010023 328.8014  31.1060  1.86230923 55641
PAZ
1 43215U 18020A   26109.08901750  .00000085  00000+0  72473-5 0  9994
2 43215  97.4451 117.3118 0001697  88.8736 271.2693 15.19149546452031
GOES 17
1 43226U 18022A   26109.51850449 -.00000180  00000+0  00000+0 0  9992
2 43226   0.7873  86.5049 0000833 257.4144 320.8698  1.00270395 29832
HISPASAT 30W-6
1 43228U 18023A   26109.42920196 -.00000214  00000+0  00000+0 0  9990
2 43228   0.0539  46.1766 0005960 346.7851 299.0930  1.00270819 29812
PODSAT
1 43229U 18023B   26108.05497978  .00071063 -99805-6  54488-3 0  9997
2 43229  26.8617 255.0929 3528911 254.8859  64.1082  8.48391864187642
O3B FM15
1 43231U 18024A   26109.32499807 -.00000016  00000+0  00000+0 0  9994
2 43231   0.0509   3.9012 0002549  26.6901 329.4249  5.00115724148087
O3B FM16
1 43232U 18024B   26109.37735279 -.00000016  00000+0  00000+0 0  9996
2 43232   0.0483   7.7995 0002702  15.8790 336.3353  5.00115888148004
O3B FM14
1 43233U 18024C   26109.21823971 -.00000016  00000+0  00000+0 0  9997
2 43233   0.0467   7.6774 0002850  21.5217 330.8182  5.00115648148006
O3B FM13
1 43234U 18024D   26109.28409946 -.00000016  00000+0  00000+0 0  9997
2 43234   0.0575 329.8736 0003644  15.3355  14.7817  5.00115492148112
LKW-4
1 43236U 18025A   26108.87172391  .00038957  00000+0  52423-3 0  9999
2 43236  97.6315 275.3257 0003746 157.6799 202.4620 15.57768334450785
BEIDOU-3 M9
1 43245U 18029A   26109.42009639 -.00000035  00000+0  00000+0 0  9996
2 43245  54.2479 302.0034 0000893  76.5665 283.4429  1.86228107 54802
BEIDOU-3 M10
1 43246U 18029B   26109.35475212 -.00000035  00000+0  00000+0 0  9993
2 43246  54.2457 302.0330 0004947  33.0657 326.9650  1.86229191 54781
IRIDIUM 144
1 43249U 18030A   26109.55527164 -.00000114  00000+0 -47900-4 0  9998
2 43249  86.3937 314.9334 0002203  86.4298 273.7150 14.34216721421734
IRIDIUM 149
1 43250U 18030B   26109.56161440 -.00000074  00000+0 -33609-4 0  9998
2 43250  86.3937 314.8985 0001985  88.3864 271.7559 14.34216819421754
IRIDIUM 157
1 43251U 18030C   26109.51087323 -.00000034  00000+0 -19257-4 0  9990
2 43251  86.3940 314.9716 0002061  89.0622 271.0810 14.34217179421728
IRIDIUM 140
1 43252U 18030D   26109.52990159 -.00000046  00000+0 -23610-4 0  9993
2 43252  86.3940 314.9764 0002102  89.1323 271.0114 14.34216965421782
IRIDIUM 145
1 43253U 18030E   26109.51721647  .00000105  00000+0  30280-4 0  9992
2 43253  86.3942 314.9543 0002455  84.7459 275.4017 14.34217592421712
IRIDIUM 146
1 43254U 18030F   26109.49818845 -.00000058  00000+0 -27935-4 0  9999
2 43254  86.3938 314.9744 0002164  86.6741 273.4702 14.34216961421722
IRIDIUM 148
1 43255U 18030G   26109.53624757  .00000101  00000+0  29005-4 0  9999
2 43255  86.3944 315.0012 0002114  85.2026 274.9411 14.34215620421764
IRIDIUM 142
1 43256U 18030H   26109.50453248  .00000021  00000+0  56283-6 0  9993
2 43256  86.3940 314.9055 0002350  85.8312 274.3152 14.34214754421721
IRIDIUM 150
1 43257U 18030J   26109.33328031  .00000124  00000+0  37141-4 0  9990
2 43257  86.3942 315.0914 0002206  88.7332 271.4116 14.34218229421723
IRIDIUM 143
1 43258U 18030K   26109.31425318  .00000105  00000+0  30409-4 0  9994
2 43258  86.3945 315.1897 0002274  86.9966 273.1490 14.34218061421656
GAOFEN-1 02
1 43259U 18031A   26109.54125241  .00001137  00000+0  17084-3 0  9992
2 43259  98.0570 172.2182 0002943 169.1332 190.9941 14.76436451434049
GAOFEN-1 03
1 43260U 18031B   26109.51932961  .00000521  00000+0  82324-4 0  9992
2 43260  98.0559 172.0612 0001104 246.5819 113.5275 14.76421887434039
GAOFEN-1 04
1 43262U 18031D   26109.49513787  .00000745  00000+0  11452-3 0  9993
2 43262  98.0572 172.2204 0000737  75.4893 284.6398 14.76457304434025
SUPERBIRD-B3
1 43271U 18033A   26109.46724876  .00000000  00000+0  00000+0 0  9992
2 43271   0.0127 245.3236 0000999 130.4104 162.0382  1.00271175 29472
HYLAS 4
1 43272U 18033B   26109.37753096 -.00000230  00000+0  00000+0 0  9995
2 43272   0.0459  76.5160 0001343 335.1679 258.2006  1.00274549 29475
YAOGAN-31 01A
1 43275U 18034A   26109.49573979 -.00000102  00000+0 -15946-4 0  9991
2 43275  63.3949 242.2928 0270233   7.2745 353.2080 13.45456225394204
YAOGAN-31 01B
1 43276U 18034B   26109.49674659 -.00000133  00000+0 -57172-4 0  9990
2 43276  63.3951 242.2944 0270236   7.2308 353.2495 13.45451933394328
YAOGAN-31 01C
1 43277U 18034C   26109.49874581 -.00000115  00000+0 -32632-4 0  9991
2 43277  63.3961 241.6450 0270307   6.9554 353.5104 13.45436983394343
WEINA 1B
1 43279U 18034E   26109.50728134 -.00000174  00000+0 -11375-3 0  9992
2 43279  63.3955 242.8325 0269953   7.6635 352.8391 13.45366412394311
